NORAD_CAT_ID,OBJECT_NAME,OBJECT_TYPE,EPOCH,MEAN_MOTION,ECCENTRICITY,INCLINATION,RA_OF_ASC_NODE,ARG_OF_PERICENTER,MEAN_ANOMALY,BSTAR,MEAN_MOTION_DOT,MEAN_MOTION_DDOT,TLE_LINE0,TLE_LINE1,TLE_LINE2,SEMIMAJOR_AXIS,PERIOD,APOGEE,PERIGEE,DECAYED
53439.0,STARLINK-4519,PAYLOAD,2023-01-01 05:03:49,15.0882421,0.0001406999999999,53.2178,286.7888,76.1551,283.9597,9.9174e-06,-1.3e-06,0.0,0 STARLINK-4519,1 53439U 22097BD  23001.21099448 -.00000130  00000-0  99174-5 0  9997,2 53439  53.2178 286.7888 0001407  76.1551 283.9597 15.08824210 22666,6917.929,95.439,540.7669999999998,538.82,0.0
53439.0,STARLINK-4519,PAYLOAD,2023-01-01 11:25:23,15.08820749,0.0001256,53.2182,285.5977,124.3857,235.7254,-0.00016269,-2.875e-05,0.0,0 STARLINK-4519,1 53439U 22097BD  23001.47596085 -.00002875  00000-0 -16269-3 0  9995,2 53439  53.2182 285.5977 0001256 124.3857 235.7254 15.08820749 23191,6917.939,95.439,540.673,538.935,0.0
53439.0,STARLINK-4519,PAYLOAD,2023-01-01 19:22:18,15.08829607,0.0001559,53.2185,284.1106,71.0949,289.0212,-0.00026677,-4.53e-05,0.0,0 STARLINK-4519,1 53439U 22097BD  23001.80716260 -.00004530  00000-0 -26677-3 0  9995,2 53439  53.2185 284.1106 0001559  71.0949 289.0212 15.08829607 23243,6917.9119999999975,95.438,540.856,538.6990000000002,0.0
53439.0,STARLINK-4519,PAYLOAD,2023-01-02 04:54:37,15.08836583,0.0001375999999999,53.2171,282.3273,73.5968,286.5175,-0.00019721,-3.425e-05,0.0,0 STARLINK-4519,1 53439U 22097BD  23002.20459704 -.00003425  00000-0 -19721-3 0  9991,2 53439  53.2171 282.3273 0001376  73.5968 286.5175 15.08836583 22811,6917.891,95.438,540.7080000000002,538.804,0.0
53439.0,STARLINK-4519,PAYLOAD,2023-01-02 11:16:09,15.088428400000002,0.0001376999999999,53.2173,281.1381,74.6341,285.4803,-0.00012795,-2.324e-05,0.0,0 STARLINK-4519,1 53439U 22097BD  23002.46955066 -.00002324  00000-0 -12795-3 0  9992,2 53439  53.2173 281.1381 0001377  74.6341 285.4803 15.08842840 22851,6917.871999999999,95.437,540.689,538.784,0.0
53439.0,STARLINK-4519,PAYLOAD,2023-01-02 19:13:04,15.08841283,0.0001307,53.2172,279.6511,67.4694,292.6437,-2.545800000000001e-05,-6.93e-06,0.0,0 STARLINK-4519,1 53439U 22097BD  23002.80074735 -.00000693  00000-0 -25458-4 0  9993,2 53439  53.2172 279.6511 0001307  67.4694 292.6437 15.08841283 23394,6917.876,95.437,540.646,538.837,0.0
53439.0,STARLINK-4519,PAYLOAD,2023-01-03 11:06:56,15.08838035,0.0001415,53.2178,276.6768,69.7304,290.384,4.6277e-05,4.49e-06,0.0,0 STARLINK-4519,1 53439U 22097BD  23003.46314906  .00000449  00000-0  46277-4 0  9992,2 53439  53.2178 276.6768 0001415  69.7304 290.3840 15.08838035 23499,6917.886,95.438,540.73,538.773,0.0
53439.0,STARLINK-4519,PAYLOAD,2023-01-04 01:25:25,15.088193099999998,0.0001411,53.218,274.0007,73.4333,286.6814,1.7343e-05,-1.2e-07,0.0,0 STARLINK-4519,1 53439U 22097BD  23004.05932843 -.00000012  00000-0  17343-4 0  9993,2 53439  53.2180 274.0007 0001411  73.4333 286.6814 15.08819310 23090,6917.944,95.439,540.785,538.8330000000002,0.0
53439.0,STARLINK-4519,PAYLOAD,2023-01-04 10:57:44,15.08832315,0.0001268,53.2176,272.2175,75.2739,284.8393,2.3779e-05,9.1e-07,0.0,0 STARLINK-4519,1 53439U 22097BD  23004.45676255  .00000091  00000-0  23779-4 0  9995,2 53439  53.2176 272.2175 0001268  75.2739 284.8393 15.08832315 23150,6917.904,95.438,540.646,538.8919999999998,0.0
53439.0,STARLINK-4519,PAYLOAD,2023-01-04 23:40:48,15.08850687,0.0001308,53.2174,269.8372,71.688,288.4254,9.8572e-05,1.282e-05,0.0,0 STARLINK-4519,1 53439U 22097BD  23004.98666683  .00001282  00000-0  98572-4 0  9993,2 53439  53.2174 269.8372 0001308  71.6880 288.4254 15.08850687 23238,6917.848000000001,95.437,540.618,538.808,0.0
53439.0,STARLINK-4519,PAYLOAD,2023-01-05 10:48:28,15.08859483,0.000137,53.217,267.7559,72.8242,287.29,0.00021854,3.194e-05,0.0,0 STARLINK-4519,1 53439U 22097BD  23005.45033215  .00003194  00000-0  21854-3 0  9997,2 53439  53.2170 267.7559 0001370  72.8242 287.2900 15.08859483 23308,6917.821,95.436,540.634,538.738,0.0
53439.0,STARLINK-4519,PAYLOAD,2023-01-06 10:39:18,15.08818227,0.0001742,53.2165,263.2962,72.593,287.5252,-0.00016016,-2.835e-05,0.0,0 STARLINK-4519,1 53439U 22097BD  23006.44396814 -.00002835  00000-0 -16016-3 0  9991,2 53439  53.2165 263.2962 0001742  72.5930 287.5252 15.08818227 23455,6917.946999999999,95.439,541.0169999999998,538.607,0.0
53439.0,STARLINK-4519,PAYLOAD,2023-01-06 17:00:51,15.0882663,0.0001519,53.2166,262.1063,71.2302,288.8855,-0.00023812,-4.074e-05,0.0,0 STARLINK-4519,1 53439U 22097BD  23006.70892669 -.00004074  00000-0 -23812-3 0  9998,2 53439  53.2166 262.1063 0001519  71.2302 288.8855 15.08826630 23491,6917.920999999999,95.438,540.837,538.735,0.0
53439.0,STARLINK-4519,PAYLOAD,2023-01-07 02:33:09,15.08834213,0.000144,53.2165,260.3215,78.2259,281.8895,-0.00026779,-4.547e-05,0.0,0 STARLINK-4519,1 53439U 22097BD  23007.10636560 -.00004547  00000-0 -26779-3 0  9999,2 53439  53.2165 260.3215 0001440  78.2259 281.8895 15.08834213 23550,6917.898,95.438,540.759,538.7669999999998,0.0
53439.0,STARLINK-4519,PAYLOAD,2023-01-08 02:23:56,15.08824484,0.0001271,53.2159,255.8615,72.3068,287.8062,3.4093e-05,2.55e-06,0.0,0 STARLINK-4519,1 53439U 22097BD  23008.09996391  .00000255  00000-0  34093-4 0  9998,2 53439  53.2159 255.8615 0001271  72.3068 287.8062 15.08824484 23709,6917.928000000001,95.439,540.672,538.914,0.0
53439.0,STARLINK-4519,PAYLOAD,2023-01-09 00:39:20,15.08830865,0.0001328,53.2164,251.6977,71.702,288.4117,0.00014319,1.991e-05,0.0,0 STARLINK-4519,1 53439U 22097BD  23009.02732441  .00001991  00000-0  14319-3 0  9992,2 53439  53.2164 251.6977 0001328  71.7020 288.4117 15.08830865 23847,6917.908,95.438,540.692,538.855,0.0
53439.0,STARLINK-4519,PAYLOAD,2023-01-09 08:36:16,15.08837291,0.0001358,53.2164,250.2114,71.5831,288.5308,0.00014204,1.973e-05,0.0,0 STARLINK-4519,1 53439U 22097BD  23009.35852152  .00001973  00000-0  14204-3 0  9993,2 53439  53.2164 250.2114 0001358  71.5831 288.5308 15.08837291 24389,6917.889,95.438,540.693,538.814,0.0
53439.0,STARLINK-4519,PAYLOAD,2023-01-09 22:54:44,15.08836991,0.0001453,53.2177,247.5366,77.1805,282.9349,8.303799999999999e-05,1.034e-05,0.0,0 STARLINK-4519,1 53439U 22097BD  23009.95468514  .00001034  00000-0  83038-4 0  9994,2 53439  53.2177 247.5366 0001453  77.1805 282.9349 15.08836991 24479,6917.89,95.438,540.76,538.749,0.0
53439.0,STARLINK-4519,PAYLOAD,2023-01-10 08:27:04,15.08828969,0.0001463,53.2163,245.7533,80.4795,279.6363,9.3922e-05,1.207e-05,0.0,0 STARLINK-4519,1 53439U 22097BD  23010.35213118  .00001207  00000-0  93922-4 0  9993,2 53439  53.2163 245.7533 0001463  80.4795 279.6363 15.08828969 24044,6917.914000000002,95.438,540.7909999999998,538.7669999999998,0.0
53439.0,STARLINK-4519,PAYLOAD,2023-01-11 00:20:54,15.08850362,0.0001499,53.2153,242.7758,68.9877,291.1275,1.924e-05,1.8e-07,0.0,0 STARLINK-4519,1 53439U 22097BD  23011.01451788  .00000018  00000-0  19240-4 0  9994,2 53439  53.2153 242.7758 0001499  68.9877 291.1275 15.08850362 24144,6917.849,95.437,540.751,538.677,0.0
53439.0,STARLINK-4519,PAYLOAD,2023-01-11 08:17:50,15.08845205,4.94e-05,53.2159,241.2912,79.4963,280.6084,-1.4993e-05,-5.26e-06,0.0,0 STARLINK-4519,1 53439U 22097BD  23011.34571777 -.00000526  00000-0 -14993-4 0  9997,2 53439  53.2159 241.2912 0000494  79.4963 280.6084 15.08845205 24683,6917.864000000001,95.437,540.071,539.388,0.0
53439.0,STARLINK-4519,PAYLOAD,2023-01-11 16:14:47,15.08827493,0.0001468,53.2147,239.8034,79.9109,280.2049,-0.00010546,-1.965e-05,0.0,0 STARLINK-4519,1 53439U 22097BD  23011.67693652 -.00001965  00000-0 -10546-3 0  9997,2 53439  53.2147 239.8034 0001468  79.9109 280.2049 15.08827493 24245,6917.919,95.438,540.799,538.768,0.0
53439.0,STARLINK-4519,PAYLOAD,2023-01-12 00:11:42,15.0883557,0.0001367,53.2155,238.3166,81.1049,279.0097,-5.3804e-05,-1.144e-05,0.0,0 STARLINK-4519,1 53439U 22097BD  23012.00813067 -.00001144  00000-0 -53804-4 0  9993,2 53439  53.2155 238.3166 0001367  81.1049 279.0097 15.08835570 24299,6917.894,95.438,540.705,538.813,0.0
53439.0,STARLINK-4519,PAYLOAD,2023-01-12 22:27:06,15.08844653,0.0001117,53.2152,234.1544,87.6149,272.4971,-0.00011007,-2.039e-05,0.0,0 STARLINK-4519,1 53439U 22097BD  23012.93548923 -.00002039  00000-0 -11007-3 0  9993,2 53439  53.2152 234.1544 0001117  87.6149 272.4971 15.08844653 24925,6917.866,95.437,540.504,538.9580000000002,0.0
53439.0,STARLINK-4519,PAYLOAD,2023-01-13 14:20:57,15.0883426,0.0001197,53.2147,231.1805,104.3123,255.8002,-2.7304e-05,-7.22e-06,0.0,0 STARLINK-4519,1 53439U 22097BD  23013.59789307 -.00000722  00000-0 -27304-4 0  9994,2 53439  53.2147 231.1805 0001197 104.3123 255.8002 15.08834260 25028,6917.898,95.438,540.591,538.935,0.0
53439.0,STARLINK-4519,PAYLOAD,2023-01-13 20:42:30,15.08829441,0.0001333,53.2146,229.9909,86.406,273.7084,8.868700000000001e-05,1.123e-05,0.0,0 STARLINK-4519,1 53439U 22097BD  23013.86285527  .00001123  00000-0  88687-4 0  9994,2 53439  53.2146 229.9909 0001333  86.4060 273.7084 15.08829441 25067,6917.9130000000005,95.438,540.7,538.856,0.0
53439.0,STARLINK-4519,PAYLOAD,2023-01-14 23:44:03,15.08838691,0.0001471,53.2137,224.9363,79.759,280.3568,4.2281e-05,3.85e-06,0.0,0 STARLINK-4519,1 53439U 22097BD  23014.98893347  .00000385  00000-0  42281-4 0  9992,2 53439  53.2137 224.9363 0001471  79.7590 280.3568 15.08838691 24744,6917.884,95.438,540.7669999999999,538.732,0.0
53439.0,STARLINK-4519,PAYLOAD,2023-01-15 14:02:32,15.08834988,0.0001484,53.2131,222.2584,87.4615,272.6547,-1.6698e-06,-3.15e-06,0.0,0 STARLINK-4519,1 53439U 22097BD  23015.58509838 -.00000315  00000-0 -16698-5 0  9997,2 53439  53.2131 222.2584 0001484  87.4615 272.6547 15.08834988 25323,6917.896,95.438,540.7869999999999,538.734,0.0
53439.0,STARLINK-4519,PAYLOAD,2023-01-15 20:24:04,15.08838843,0.0001246,53.215,221.0694,86.8435,273.27,2.0931e-05,4.5e-07,0.0,0 STARLINK-4519,1 53439U 22097BD  23015.85005496  .00000045  00000-0  20931-4 0  9990,2 53439  53.2150 221.0694 0001246  86.8435 273.2700 15.08838843 25368,6917.884,95.438,540.611,538.887,0.0
